County,Municipality,Any Locations Found?,URL,Location Type,Location Name,Voting Dates and Times,Address Line 1,Address Line 2,City,State,Zip,Special Rules and Instructions,Questions / Notes
Pinellas,Largo,Yes,https://www.votepinellas.com/Election-Information/Ballot-Drop-off-Locations,Dropoff Location,Starkey Lakes Corporate Center,M-F 8a - 5p; 8a -7p Tue Nov 3,13001 Starkey Road,,Largo,FL,33773,Drive-thru Location,
Pinellas,Clearwater,,https://www.votepinellas.com/Election-Information/Ballot-Drop-off-Locations,Dropoff Location,Pinellas County Courthouse,M-F 8a - 5p; 8a -7p Tue Nov 3,"315 Court St., Room 117",,Clearwater,FL,33756,,
Pinellas,St. Petersburg,Yes,https://www.votepinellas.com/Election-Information/Ballot-Drop-off-Locations,Dropoff Location,County Building,M-F 8a - 5p; 8a -7p Tue Nov 3,"501 First Ave. N, (Fifth St. North entrance)",,St. Petersburg,FL,33701,,
Pinellas,Gulfport,Yes,https://www.votepinellas.com/Election-Information/Ballot-Drop-off-Locations,Dropoff Location,Gulfport Neighborhood Center,"Monday – Friday, 8:00 a.m. – 3:00 p.m. thru Nov 2",1617 49th St. S.,,Gulfport,FL,33707,"Drive-thru Location
No Ballot Drop Off Election Day",
Pinellas,"Palm Harbor",Yes,https://www.votepinellas.com/Election-Information/Ballot-Drop-off-Locations,Dropoff Location,Centre of Palm Harbor,"Monday – Sunday, 7:00 a.m. – 7:00 p.m.
Monday, November 2nd, 8:00 a.m. – 5:00 p.m.",1500 16th St.,,"Palm Harbor",FL,34683,"Drive-thru Location
No Ballot Drop Off Election Day",
Pinellas,Clearwater,Yes,https://www.votepinellas.com/Election-Information/Ballot-Drop-off-Locations,Dropoff Location,EpiCenter at St. Petersburg College,"Monday – Friday, 10:00 a.m. – 5:00 p.m.  thru Nov 2",13805 58th St. N,,Clearwater,FL,33765,"Drive-thru Location
No Ballot Drop Off Election Day",
Pinellas,St Petersburg,Yes,https://www.votepinellas.com/Election-Information/Ballot-Drop-off-Locations,Dropoff Location,Tropicana Field,Monday – Sunday 8:00 a.m. – 5:00 p.m.  thru Nov 2,1 Tropicana Drive,,St Petersburg,FL,33705,"Drive-thru Location
No Ballot Drop Off Election Day
*Weather contingent",
Pinellas,Tarpon Springs,Yes,https://www.votepinellas.com/Election-Information/Ballot-Drop-off-Locations,Dropoff Location,Tarpon Springs Public Library,"Monday – Friday, 10:00 a.m. – 5:00 p.m.  thru Nov 2
Saturday, 10:00 a.m. – 4:00 p.m.",138 E. Lemon St,,Tarpon Springs,FL,34689,No Ballot Drop Off Election Day,
Pinellas,Oldsmar,Yes,https://www.votepinellas.com/Election-Information/Ballot-Drop-off-Locations,Dropoff Location,Oldsmar Public Library,"Monday – Saturday, 9:00 a.m. – 4:00 p.m.  thru Nov 2",400 St. Petersburg Dr. E.,,Oldsmar,FL,34677,No Ballot Drop Off Election Day,
Pinellas,St. Petersburg ,Yes,https://www.votepinellas.com/Election-Information/Ballot-Drop-off-Locations,Dropoff Location,St. Petersburg Main Library,"Monday – Saturday, 10:00 a.m. – 4:00 p.m. thru Nov 2",3745 9th Ave. N.,,St. Petersburg ,FL,33713,No Ballot Drop Off Election Day,
Pinellas,"Palm Harbor",Yes,https://www.votepinellas.com/Election-Information/Ballot-Drop-off-Locations,Dropoff Location,East Lake Community Library,"Monday – Saturday, 10:00 a.m. – 4:00 p.m. thru Nov 2",4125 East Lake Rd.,,"Palm Harbor",FL,34685,No Ballot Drop Off Election Day,
Pinellas,Clearwater,Yes,https://www.votepinellas.com/Election-Information/Ballot-Drop-off-Locations,Dropoff Location,Gulf to Bay Tax Collector Office,"Monday – Friday, 8:00 a.m. – 5:00 p.m. thru Nov 2",1663 Gulf to Bay Blvd.,,Clearwater,FL,33756,No Ballot Drop Off Election Day,
Pinellas,Seminole,Yes,https://www.votepinellas.com/Election-Information/Ballot-Drop-off-Locations,Dropoff Location,Seminole Community Library,"Monday – Friday, 9:00 a.m. – 4:00 p.m.
Saturday, 10:00 a.m. – 4:00 p.m
 thru Nov 2",9200 113th St. N.,,Seminole,FL,33772,No Ballot Drop Off Election Day,
Pinellas,St. Petersburg,Yes,https://www.votepinellas.com/Election-Information/Ballot-Drop-off-Locations,Dropoff Location,James Weldon Johnson Branch Library,"Monday – Friday, 10:00 a.m. – 4:00 p.m.
Saturday, NOON. – 4:00 p.m
 thru Nov 2",1059 18th Ave. S.,,St. Petersburg,FL,33705,No Ballot Drop Off Election Day,
Pinellas,Clearwater,Yes,https://www.votepinellas.com/Election-Information/Ballot-Drop-off-Locations,Dropoff Location,North County Tax Collector Office,"Monday – Friday, 8:00 a.m. – 5:00 p.m. thru Nov 2",29399 US Hwy. 19 N,,Clearwater,FL,33761,No Ballot Drop Off Election Day,
Pinellas,Pinellas Park,Yes,https://www.votepinellas.com/Election-Information/Ballot-Drop-off-Locations,Dropoff Location,Barbara S. Ponce Public Library,"Monday – Saturday, 9:00 a.m. – 4:00 p.m. thru Nov 2",7770 52nd St.,,Pinellas Park,FL,33781,No Ballot Drop Off Election Day,
Pinellas,St. Petersburg,Yes,https://www.votepinellas.com/Election-Information/Ballot-Drop-off-Locations,Dropoff Location,Skyway Plaza Tax Collector Office,"Monday – Friday, 8:00 a.m. – 5:00 p.m. thru Nov 2",1067 62nd Ave. S.,,St. Petersburg,FL,33705,No Ballot Drop Off Election Day,
Pinellas,Safety Harbor,Yes,https://www.votepinellas.com/Election-Information/Ballot-Drop-off-Locations,Dropoff Location,Safety Harbor Public Library,"Monday – Saturday, 10:00 a.m. – 5:00 p.m. thru Nov 2",101 2nd St. N.,,Safety Harbor,FL,34695,No Ballot Drop Off Election Day,
Pinellas,Dunedin ,Yes,https://www.votepinellas.com/Election-Information/Ballot-Drop-off-Locations,Dropoff Location,Dunedin Library,"Monday – Saturday, 10:00 a.m. – 5:00 p.m. thru Nov 2",223 Douglas Ave.,,Dunedin ,FL,34698,No Ballot Drop Off Election Day,
Pinellas,Largo,Yes,https://www.votepinellas.com/Election-Information/Ballot-Drop-off-Locations,Dropoff Location,Largo Public Library,"Monday – Saturday, 10:00 a.m. – 5:00 p.m. thru Nov 2",120 Central Park Dr,,Largo,FL,33771,No Ballot Drop Off Election Day,
Pinellas,St. Petersburg,Yes,https://www.votepinellas.com/Election-Information/Ballot-Drop-off-Locations,Dropoff Location,North Community Library,"Monday – Saturday, 10:00 a.m. – 5:00 p.m. thru Nov 2",861 70th Ave N.,,St. Petersburg,FL,33702,No Ballot Drop Off Election Day,
Pinellas,St. Pete Beach,Yes,https://www.votepinellas.com/Election-Information/Ballot-Drop-off-Locations,Dropoff Location,St. Pete Beach Public Library,"Monday – Friday, 10:00 a.m. – 5:00 p.m.
Saturday, 10:00 a.m. – 2:00 p.m.
 thru Nov 2",7470 Gulf Blvd.,,St. Pete Beach,FL,33706,No Ballot Drop Off Election Day,
Pinellas,St. Petersburg,Yes,https://www.votepinellas.com/Election-Information/Ballot-Drop-off-Locations,Dropoff Location,Walter Fuller Recreation Center,"Monday – Friday, 10:00 a.m. – 5:00 p.m. thru Nov 2",7891 26th Ave N.,,St. Petersburg,FL,33710,No Ballot Drop Off Election Day,
Pinellas,Clearwater,Yes,https://www.votepinellas.com/Election-Information/Ballot-Drop-off-Locations,Dropoff Location,Clearwater Countryside Library,"Monday – Thursday, 10:00 a.m. – 5:00 p.m.
Friday – Saturday, noon – 5:00 p.m.
 thru Nov 2",2642 Sabal Springs Drive,,Clearwater,FL,33761,No Ballot Drop Off Election Day,
Pinellas,St. Petersburg,Yes,https://www.votepinellas.com/Election-Information/Ballot-Drop-off-Locations,Dropoff Location,SPC Allstate Center,"Monday – Sunday, 7:00 a.m. – 7:00 p.m.
Monday, November 2nd, 8:00 a.m. – 5:00 p.m.
 thru Nov 2",3200 34th St. S,,St. Petersburg,FL,33711,No Ballot Drop Off Election Day,